VSP RF A1               
1 59135U 24043AP  26066.03073316  .00000577  00000+0  25199-4 0  9997
2 59135  97.5247 201.5379 0009431 234.6315 125.4042 15.26179596111403
STARLINK-31256          
1 59161U 24044K   26068.78465645  .00000333  00000+0  21629-4 0  9995
2 59161  43.0000 106.1864 0001030 276.2359  83.8375 15.27568251113613
